{"type": "FeatureCollection", "features": [ {"type": "Feature", "properties": {"norad_id": 39620, "name": "COSMOS 2492 (754)", "group": "gnss", "lat": -61.063588758423855, "lon": -163.73292411004138, "alt_km": 19116.7264685562, "timestamp": "2025-12-09T14:52:26.404512+00:00", "meta": {"OBJECT_NAME": "COSMOS 2492 (754)", "OBJECT_ID": "2014-012A", "EPOCH": "2025-12-08T08:23:17.785824", "MEAN_MOTION": 2.13103117, "ECCENTRICITY": 0.0014207, "INCLINATION": 65.4103, "RA_OF_ASC_NODE": 320.4195, "ARG_OF_PERICENTER": 311.8365, "MEAN_ANOMALY": 48.0373, "EPHEMERIS_TYPE": 0, "CLASSIFICATION_TYPE": "U", "NORAD_CAT_ID": 39620, "ELEMENT_SET_NO": 999, "REV_AT_EPOCH": 9117, "BSTAR": 0, "MEAN_MOTION_DOT": -4.9e-07, "MEAN_MOTION_DDOT": 0}, "tle": {"line1": "1 39620U 14012A   25342.34951141 -.00000049  00000+0  00000+0 0  9994", "line2": "2 39620  65.4103 320.4195 0014207 311.8365  48.0373  2.13103117 91178"}}, "geometry": {"type": "Point", "coordinates": [-163.73292411004138, -61.063588758423855]}}, {"type": "Feature", "properties": {"norad_id": 39635, "name": "IRNSS-1B", "group": "gnss", "lat": 26.379924962913222, "lon": -0.5242007736588924, "alt_km": 35755.86807790507, "timestamp": "2025-12-09T14:52:26.404524+00:00", "meta": {"OBJECT_NAME": "IRNSS-1B", "OBJECT_ID": "2014-017A", "EPOCH": "2025-12-07T19:02:08.350080", "MEAN_MOTION": 1.00276938, "ECCENTRICITY": 0.00176548, "INCLINATION": 28.8332, "RA_OF_ASC_NODE": 243.6763, "ARG_OF_PERICENTER": 183.0277, "MEAN_ANOMALY": 350.7455, "EPHEMERIS_TYPE": 0, "CLASSIFICATION_TYPE": "U", "NORAD_CAT_ID": 39635, "ELEMENT_SET_NO": 999, "REV_AT_EPOCH": 4287, "BSTAR": 0, "MEAN_MOTION_DOT": 1.18e-06, "MEAN_MOTION_DDOT": 0}, "tle": {"line1": "1 39635U 14017A   25341.79315220  .00000118  00000+0  00000+0 0  9991", "line2": "2 39635  28.8332 243.6763 0017654 183.0277 350.7455  1.00276938 42872"}}, "geometry": {"type": "Point", "coordinates": [-0.5242007736588924, 26.379924962913222]}}, {"type": "Feature", "properties": {"norad_id": 39727, "name": "LUCH 5V (SDCM/PRN 141)", "group": "gnss", "lat": -2.660095314942903, "lon": 36.62172664543735, "alt_km": 35796.882941491625, "timestamp": "2025-12-09T14:52:26.404536+00:00", "meta": {"OBJECT_NAME": "LUCH 5V (SDCM/PRN 141)", "OBJECT_ID": "2014-023A", "EPOCH": "2025-12-08T17:28:47.961696", "MEAN_MOTION": 1.00270251, "ECCENTRICITY": 0.00045753, "INCLINATION": 4.6594, "RA_OF_ASC_NODE": 71.5729, "ARG_OF_PERICENTER": 204.2143, "MEAN_ANOMALY": 158.9163, "EPHEMERIS_TYPE": 0, "CLASSIFICATION_TYPE": "U", "NORAD_CAT_ID": 39727, "ELEMENT_SET_NO": 999, "REV_AT_EPOCH": 4245, "BSTAR": 0, "MEAN_MOTION_DOT": -2.68e-06, "MEAN_MOTION_DDOT": 0}, "tle": {"line1": "1 39727U 14023A   25342.72833289 -.00000268  00000+0  00000+0 0  9991", "line2": "2 39727   4.6594  71.5729 0004575 204.2143 158.9163  1.00270251 42452"}}, "geometry": {"type": "Point", "coordinates": [36.62172664543735, -2.660095314942903]}}, {"type": "Feature", "properties": {"norad_id": 39741, "name": "GPS BIIF-6  (PRN 06)", "group": "gnss", "lat": 56.224482315334555, "lon": 59.64267296488734, "alt_km": 20237.460421741263, "timestamp": "2025-12-09T14:52:26.404548+00:00", "meta": {"OBJECT_NAME": "GPS BIIF-6  (PRN 06)", "OBJECT_ID": "2014-026A", "EPOCH": "2025-12-09T00:05:22.717824", "MEAN_MOTION": 2.00561537, "ECCENTRICITY": 0.00390851, "INCLINATION": 56.5851, "RA_OF_ASC_NODE": 338.9217, "ARG_OF_PERICENTER": 318.4622, "MEAN_ANOMALY": 41.2516, "EPHEMERIS_TYPE": 0, "CLASSIFICATION_TYPE": "U", "NORAD_CAT_ID": 39741, "ELEMENT_SET_NO": 999, "REV_AT_EPOCH": 8472, "BSTAR": 0, "MEAN_MOTION_DOT": -8.4e-07, "MEAN_MOTION_DDOT": 0}, "tle": {"line1": "1 39741U 14026A   25343.00373516 -.00000084  00000+0  00000+0 0  9990", "line2": "2 39741  56.5851 338.9217 0039085 318.4622  41.2516  2.00561537 84729"}}, "geometry": {"type": "Point", "coordinates": [59.64267296488734, 56.224482315334555]}}, {"type": "Feature", "properties": {"norad_id": 40001, "name": "COSMOS 2500 (755)", "group": "gnss", "lat": 50.24145582230928, "lon": 106.62822109988271, "alt_km": 19126.460886114037, "timestamp": "2025-12-09T14:52:26.404559+00:00", "meta": {"OBJECT_NAME": "COSMOS 2500 (755)", "OBJECT_ID": "2014-032A", "EPOCH": "2025-12-08T23:47:04.888320", "MEAN_MOTION": 2.13105786, "ECCENTRICITY": 0.00083334, "INCLINATION": 65.3455, "RA_OF_ASC_NODE": 320.1603, "ARG_OF_PERICENTER": 219.1705, "MEAN_ANOMALY": 140.7654, "EPHEMERIS_TYPE": 0, "CLASSIFICATION_TYPE": "U", "NORAD_CAT_ID": 40001, "ELEMENT_SET_NO": 999, "REV_AT_EPOCH": 8940, "BSTAR": 0, "MEAN_MOTION_DOT": -4.9e-07, "MEAN_MOTION_DDOT": 0}, "tle": {"line1": "1 40001U 14032A   25342.99102880 -.00000049  00000+0  00000+0 0  9990", "line2": "2 40001  65.3455 320.1603 0008333 219.1705 140.7654  2.13105786 89403"}}, "geometry": {"type": "Point", "coordinates": [106.62822109988271, 50.24145582230928]}}, {"type": "Feature", "properties": {"norad_id": 40105, "name": "GPS BIIF-7  (PRN 09)", "group": "gnss", "lat": 17.434625451434517, "lon": 108.60656122906023, "alt_km": 20191.909629497153, "timestamp": "2025-12-09T14:52:26.404571+00:00", "meta": {"OBJECT_NAME": "GPS BIIF-7  (PRN 09)", "OBJECT_ID": "2014-045A", "EPOCH": "2025-12-08T14:13:50.768544", "MEAN_MOTION": 2.00572212, "ECCENTRICITY": 0.00327724, "INCLINATION": 55.2267, "RA_OF_ASC_NODE": 96.0644, "ARG_OF_PERICENTER": 119.7768, "MEAN_ANOMALY": 240.5333, "EPHEMERIS_TYPE": 0, "CLASSIFICATION_TYPE": "U", "NORAD_CAT_ID": 40105, "ELEMENT_SET_NO": 999, "REV_AT_EPOCH": 8225, "BSTAR": 0, "MEAN_MOTION_DOT": 0, "MEAN_MOTION_DDOT": 0}, "tle": {"line1": "1 40105U 14045A   25342.59294871  .00000000  00000+0  00000+0 0  9993", "line2": "2 40105  55.2267  96.0644 0032772 119.7768 240.5333  2.00572212 82256"}}, "geometry": {"type": "Point", "coordinates": [108.60656122906023, 17.434625451434517]}}, {"type": "Feature", "properties": {"norad_id": 40128, "name": "GSAT0201 (GALILEO 5)", "group": "gnss", "lat": -26.65978343797204, "lon": -104.60393991252954, "alt_km": 25455.658921523293, "timestamp": "2025-12-09T14:52:26.404585+00:00", "meta": {"OBJECT_NAME": "GSAT0201 (GALILEO 5)", "OBJECT_ID": "2014-050A", "EPOCH": "2025-12-07T12:54:32.900256", "MEAN_MOTION": 1.85519488, "ECCENTRICITY": 0.16474216, "INCLINATION": 49.0828, "RA_OF_ASC_NODE": 281.2757, "ARG_OF_PERICENTER": 172.085, "MEAN_ANOMALY": 190.9173, "EPHEMERIS_TYPE": 0, "CLASSIFICATION_TYPE": "U", "NORAD_CAT_ID": 40128, "ELEMENT_SET_NO": 999, "REV_AT_EPOCH": 7476, "BSTAR": 0, "MEAN_MOTION_DOT": -5.9e-07, "MEAN_MOTION_DDOT": 0}, "tle": {"line1": "1 40128U 14050A   25341.53788079 -.00000059  00000+0  00000+0 0  9990", "line2": "2 40128  49.0828 281.2757 1647421 172.0850 190.9173  1.85519488 74761"}}, "geometry": {"type": "Point", "coordinates": [-104.60393991252954, -26.65978343797204]}}, {"type": "Feature", "properties": {"norad_id": 40129, "name": "GSAT0202 (GALILEO 6)", "group": "gnss", "lat": 35.13420803721758, "lon": 62.72600057195945, "alt_km": 17878.452733338585, "timestamp": "2025-12-09T14:52:26.404596+00:00", "meta": {"OBJECT_NAME": "GSAT0202 (GALILEO 6)", "OBJECT_ID": "2014-050B", "EPOCH": "2025-12-08T20:55:50.636640", "MEAN_MOTION": 1.85520286, "ECCENTRICITY": 0.16482545, "INCLINATION": 49.097, "RA_OF_ASC_NODE": 280.3049, "ARG_OF_PERICENTER": 172.8865, "MEAN_ANOMALY": 189.8198, "EPHEMERIS_TYPE": 0, "CLASSIFICATION_TYPE": "U", "NORAD_CAT_ID": 40129, "ELEMENT_SET_NO": 999, "REV_AT_EPOCH": 7695, "BSTAR": 0, "MEAN_MOTION_DOT": -6.8e-07, "MEAN_MOTION_DDOT": 0}, "tle": {"line1": "1 40129U 14050B   25342.87211385 -.00000068  00000+0  00000+0 0  9990", "line2": "2 40129  49.0970 280.3049 1648254 172.8865 189.8198  1.85520286 76958"}}, "geometry": {"type": "Point", "coordinates": [62.72600057195945, 35.13420803721758]}}, {"type": "Feature", "properties": {"norad_id": 40269, "name": "IRNSS-1C", "group": "gnss", "lat": -5.591194549153263, "lon": 24.5516314130056, "alt_km": 35762.69928072482, "timestamp": "2025-12-09T14:52:26.404608+00:00", "meta": {"OBJECT_NAME": "IRNSS-1C", "OBJECT_ID": "2014-061A", "EPOCH": "2025-12-08T22:56:51.811008", "MEAN_MOTION": 1.00268336, "ECCENTRICITY": 0.0017772, "INCLINATION": 6.0313, "RA_OF_ASC_NODE": 92.6982, "ARG_OF_PERICENTER": 2.4459, "MEAN_ANOMALY": 49.946, "EPHEMERIS_TYPE": 0, "CLASSIFICATION_TYPE": "U", "NORAD_CAT_ID": 40269, "ELEMENT_SET_NO": 999, "REV_AT_EPOCH": 4078, "BSTAR": 0, "MEAN_MOTION_DOT": -1.59e-06, "MEAN_MOTION_DDOT": 0}, "tle": {"line1": "1 40269U 14061A   25342.95615522 -.00000159  00000+0  00000+0 0  9998", "line2": "2 40269   6.0313  92.6982 0017772   2.4459  49.9460  1.00268336 40780"}}, "geometry": {"type": "Point", "coordinates": [24.5516314130056, -5.591194549153263]}}, {"type": "Feature", "properties": {"norad_id": 40294, "name": "GPS BIIF-8  (PRN 03)", "group": "gnss", "lat": 51.473846290884616, "lon": 163.19641594109214, "alt_km": 20054.82845168534, "timestamp": "2025-12-09T14:52:26.404620+00:00", "meta": {"OBJECT_NAME": "GPS BIIF-8  (PRN 03)", "OBJECT_ID": "2014-068A", "EPOCH": "2025-12-08T11:17:40.854336", "MEAN_MOTION": 2.00564487, "ECCENTRICITY": 0.00607942, "INCLINATION": 56.8546, "RA_OF_ASC_NODE": 38.3112, "ARG_OF_PERICENTER": 69.2801, "MEAN_ANOMALY": 291.427, "EPHEMERIS_TYPE": 0, "CLASSIFICATION_TYPE": "U", "NORAD_CAT_ID": 40294, "ELEMENT_SET_NO": 999, "REV_AT_EPOCH": 8138, "BSTAR": 0, "MEAN_MOTION_DOT": -7.8e-07, "MEAN_MOTION_DDOT": 0}, "tle": {"line1": "1 40294U 14068A   25342.47061174 -.00000078  00000+0  00000+0 0  9998", "line2": "2 40294  56.8546  38.3112 0060794  69.2801 291.4270  2.00564487 81386"}}, "geometry": {"type": "Point", "coordinates": [163.19641594109214, 51.473846290884616]}}]}